KUIPER-00218            
1 67780U 26030S   26071.63471860  .00032970  00000+0  95182-3 0  9998
2 67780  51.8841 205.0636 0007103  58.4826 301.6853 15.35355842  5544
KUIPER-00220            
1 67781U 26030T   26071.57768530  .00036374  00000+0  10621-2 0  9991
2 67781  51.8815 205.4205 0008536  64.1453 296.0412 15.34940236  5536
KUIPER-00222            
1 67782U 26030U   26071.74189339  .00034660  00000+0  11011-2 0  9995
2 67782  51.8794 205.0095 0017381  76.7472 283.5450 15.32177597  5559
KUIPER-00223            
1 67783U 26030V   26071.78291177  .00037710  00000+0  11229-2 0  9994
2 67783  51.8835 204.5516 0012400  67.4257 292.8039 15.34266835  5566
KUIPER-00225            
1 67784U 26030W   26071.75240720  .00622202  00000+0  16523-1 0  9997
2 67784  51.8813 204.3497 0003029  38.5587 321.5615 15.35574856  5567
KUIPER-00226            
1 67785U 26030X   26071.76034215  .00035628  00000+0  11852-2 0  9990
2 67785  51.8829 205.1308 0019441  80.7069 279.6113 15.30649080  5556
KUIPER-00259            
1 67786U 26030Y   26071.76745251  .00035957  00000+0  10401-2 0  9994
2 67786  51.8816 204.4470 0008874  57.5068 302.6775 15.35239757  5567
KUIPER-00260            
1 67787U 26030Z   26071.74201264  .00038066  00000+0  10514-2 0  9993
2 67787  51.8805 204.2810 0001776  41.9993 318.1129 15.36687579  5475
KUIPER-00262            
1 67788U 26030AA  26071.73749815  .00044675  00000+0  12236-2 0  9998
2 67788  51.8819 204.2534 0000874  34.0598 326.0445 15.36877241  5562
KUIPER-00266            
1 67789U 26030AB  26071.63428499  .00029032  00000+0  96376-3 0  9998
2 67789  51.8822 205.7789 0023150  84.6260 275.7364 15.30744734  5535
KUIPER-00268            
1 67790U 26030AC  26071.74945826  .00035710  00000+0  10036-2 0  9998
2 67790  51.8845 204.3408 0002580  44.1237 315.9955 15.36176538  5567
KUIPER-00270            
1 67791U 26030AD  26071.77493406  .00038736  00000+0  11347-2 0  9991
2 67791  51.8819 204.4931 0009859  64.6977 295.5029 15.34798865  5561
KUIPER-00274            
1 67792U 26030AE  26071.62643373 -.00001118  00000+0 -25386-4 0  9992
2 67792  51.8822 205.7385 0017716  80.0932 280.2051 15.29839206  5539
KUIPER-00275            
1 67793U 26030AF  26071.77190679  .00038412  00000+0  11215-2 0  9994
2 67793  51.8845 204.4860 0009442  62.2662 297.9280 15.34909681  5561
KUIPER-00276            
1 67794U 26030AG  26071.62935788  .00028673  00000+0  97231-3 0  9998
2 67794  51.8837 205.7554 0018967  76.1812 284.1281 15.30148532  5532
KUIPER-00279            
1 67795U 26030AH  26071.63174160  .00032397  00000+0  92933-3 0  9991
2 67795  51.8802 205.0349 0006295  54.7585 305.3989 15.35569097  5540
CREW DRAGON 12          
1 67796U 26031A   26071.80448780  .00009714  00000+0  18665-3 0  9991
2 67796  51.6325  56.9556 0007970 185.8192 174.2705 15.48609576556713
